MEAN_MOTION;ECCENTRICITY;INCLINATION;RA_OF_ASC_NODE;ARG_OF_PERICENTER;MEAN_ANOMALY;BSTAR;MEAN_MOTION_DOT;MEAN_MOTION_DDOT;TYPE
2.00559747;0.0131686;56.3799;18.1475;261.7771;105.7507;0;-6.6E-7;0;Navigation
2.00559747;0.0131686;56.3799;18.1475;261.7771;105.7507;0;-6.6E-7;0;Navigation
2.00559682;0.0131669;56.38;18.1151;261.789;342.3976;0;-7.1E-7;0;Navigation
2.00559646;0.013166;56.3801;18.0969;261.7935;317.7346;0;-7.3E-7;0;Navigation
2.0055961;0.0131647;56.3801;18.0792;261.7967;282.8197;0;-7.5E-7;0;Navigation
2.00559569;0.0131627;56.3803;18.0569;261.8074;333.6016;0;-7.8E-7;0;Navigation
2.00559535;0.0131611;56.3804;18.0357;261.8133;4.4254;0;-8.0E-7;0;Navigation
2.00559514;0.013162;56.3804;18.0212;261.8169;271.2548;0;-8.2E-7;0;Navigation
2.00559514;0.013162;56.3804;18.0212;261.8169;271.2548;0;-8.2E-7;0;Navigation
2.00559428;0.0131606;56.3806;17.9589;261.835;336.9588;0;-8.6E-7;0;Navigation
2.00559428;0.0131606;56.3806;17.9589;261.835;336.9588;0;-8.6E-7;0;Navigation
2.00559385;0.0131591;56.3807;17.9205;261.8459;323.2999;0;-8.8E-7;0;Navigation
2.00559364;0.0131583;56.3808;17.9009;261.8516;323.8951;0;-8.9E-7;0;Navigation
2.00559341;0.0131555;56.3808;17.8793;261.8575;2.0598;0;-8.9E-7;0;Navigation
2.00559304;0.0131522;56.381;17.8397;261.8686;11.7007;0;-9.1E-7;0;Navigation
2.00559277;0.0131508;56.381;17.8078;261.8728;240.347;0;-9.2E-7;0;Navigation
2.00559271;0.0131503;56.3811;17.8026;261.8749;335.2167;0;-9.3E-7;0;Navigation
2.00559258;0.0131486;56.3811;17.791;261.8756;189.9108;0;-9.3E-7;0;Navigation
2.00559238;0.0131472;56.3812;17.7685;261.88;243.9176;0;-9.5E-7;0;Navigation
2.00559232;0.0131466;56.3812;17.7628;261.8828;347.9008;0;-9.5E-7;0;Navigation
2.00559216;0.0131452;56.3813;17.7418;261.8881;16.339;0;-9.7E-7;0;Navigation
2.00559205;0.0131448;56.3813;17.7283;261.891;262.9779;0;-9.7E-7;0;Navigation
2.00559175;0.0131435;56.3814;17.6897;261.9;254.5247;0;-1.0E-6;0;Navigation
2.00559172;0.0131441;56.3814;17.6865;261.9011;313.6344;0;-1.0E-6;0;Navigation
2.00559139;0.0131425;56.3814;17.6514;261.9094;240.5992;0;-1.02E-6;0;Navigation
2.00559132;0.0131418;56.3815;17.6438;261.9125;19.4866;0;-1.02E-6;0;Navigation
2.00559115;0.0131406;56.3815;17.6276;261.9153;317.5089;0;-1.03E-6;0;Navigation
2.00559099;0.0131406;56.3816;17.6085;261.9206;308.8011;0;-1.03E-6;0;Navigation
2.0055908;0.0131402;56.3816;17.5893;261.9254;303.9428;0;-1.03E-6;0;Navigation
2.0055908;0.0131402;56.3816;17.5893;261.9254;303.9428;0;-1.03E-6;0;Navigation
2.0055908;0.0131402;56.3816;17.5893;261.9254;303.9428;0;-1.03E-6;0;Navigation
2.0055908;0.0131402;56.3816;17.5893;261.9254;303.9428;0;-1.03E-6;0;Navigation
2.0055908;0.0131402;56.3816;17.5893;261.9254;303.9428;0;-1.03E-6;0;Navigation
2.0055908;0.0131402;56.3816;17.5893;261.9254;303.9428;0;-1.03E-6;0;Navigation
2.0055908;0.0131402;56.3816;17.5893;261.9254;303.9428;0;-1.03E-6;0;Navigation
2.00558706;0.0131318;56.3822;17.3527;261.9788;344.7259;0;-7.7E-7;0;Navigation
2.00558665;0.0131254;56.3822;17.341;261.9748;200.1047;0;-7.6E-7;0;Navigation
2.00558641;0.0131255;56.3822;17.3316;261.9789;12.9564;0;-7.4E-7;0;Navigation
2.00558597;0.0131247;56.3823;17.3129;261.9845;358.5074;0;-7.2E-7;0;Navigation
2.00558549;0.0131232;56.3823;17.2919;261.989;24.2442;0;-7.0E-7;0;Navigation
2.00558549;0.0131232;56.3823;17.2919;261.989;24.2442;0;-7.0E-7;0;Navigation
2.00558462;0.0131226;56.3824;17.2562;261.9944;322.7844;0;-6.7E-7;0;Navigation
2.00558418;0.0131222;56.3824;17.2371;261.9983;314.518;0;-6.7E-7;0;Navigation
2.00558373;0.0131219;56.3825;17.2179;262.0014;308.4251;0;-6.6E-7;0;Navigation
2.00558373;0.0131219;56.3825;17.2179;262.0014;308.4251;0;-6.6E-7;0;Navigation
2.00558373;0.0131219;56.3825;17.2179;262.0014;308.4251;0;-6.6E-7;0;Navigation
2.00558373;0.0131219;56.3825;17.2179;262.0014;308.4251;0;-6.6E-7;0;Navigation
2.00558103;0.0131161;56.3828;17.0986;262.0205;344.8212;0;-7.2E-7;0;Navigation
2.00558103;0.0131161;56.3828;17.0986;262.0205;344.8212;0;-7.2E-7;0;Navigation
2.00558016;0.0131141;56.3828;17.0589;262.0259;355.5416;0;-7.6E-7;0;Navigation
2.0055794;0.013111;56.383;17.0189;262.0278;12.0427;0;-8.1E-7;0;Navigation
2.0055787;0.0131088;56.3831;16.9792;262.0344;22.2553;0;-8.5E-7;0;Navigation
2.00557842;0.0131088;56.3831;16.9634;262.0386;312.6993;0;-8.6E-7;0;Navigation
2.00557779;0.0131057;56.3832;16.921;262.0426;12.8933;0;-9.0E-7;0;Navigation
2.00557747;0.0131059;56.3833;16.8983;262.0479;70.7873;0;-9.1E-7;0;Navigation
2.00557712;0.0131042;56.3834;16.8648;262.0533;327.666;0;-9.2E-7;0;Navigation
2.00557668;0.0131033;56.3835;16.8267;262.0575;307.7082;0;-9.4E-7;0;Navigation
2.00557668;0.0131033;56.3835;16.8267;262.0575;307.7082;0;-9.4E-7;0;Navigation
2.00557668;0.0131033;56.3835;16.8267;262.0575;307.7082;0;-9.4E-7;0;Navigation
2.00557668;0.0131033;56.3835;16.8267;262.0575;307.7082;0;-9.4E-7;0;Navigation
2.00557537;0.0130966;56.3839;16.6732;262.0754;255.9613;0;-1.01E-6;0;Navigation
2.00557537;0.0130966;56.3839;16.6732;262.0754;255.9613;0;-1.01E-6;0;Navigation
2.00557508;0.0130948;56.384;16.634;262.0797;257.6314;0;-1.04E-6;0;Navigation
2.00557508;0.0130948;56.384;16.634;262.0797;257.6314;0;-1.04E-6;0;Navigation
2.00557504;0.0130945;56.384;16.627;262.081;27.8538;0;-1.04E-6;0;Navigation
2.0055748;0.0130934;56.3841;16.5948;262.0839;259.7988;0;-1.06E-6;0;Navigation
2.0055748;0.0130934;56.3841;16.5948;262.0839;259.7988;0;-1.06E-6;0;Navigation
2.0055748;0.0130934;56.3841;16.5948;262.0839;259.7988;0;-1.06E-6;0;Navigation
2.0055739;0.0130902;56.3844;16.4922;262.1015;350.8426;0;-1.06E-6;0;Navigation
2.00557373;0.0130897;56.3845;16.4775;262.1011;261.0934;0;-1.05E-6;0;Navigation
2.00557367;0.0130893;56.3845;16.4737;262.1006;331.2538;0;-1.05E-6;0;Navigation
2.00557338;0.0130883;56.3846;16.4496;262.1046;53.8535;0;-1.02E-6;0;Navigation
2.00557321;0.0130877;56.3846;16.4355;262.1037;313.9696;0;-1.01E-6;0;Navigation
2.00557321;0.0130877;56.3846;16.4355;262.1037;313.9696;0;-1.01E-6;0;Navigation
2.00557321;0.0130877;56.3846;16.4355;262.1037;313.9696;0;-1.01E-6;0;Navigation
2.00557137;0.0130837;56.3849;16.3202;262.1113;277.8572;0;-8.5E-7;0;Navigation
2.00557125;0.0130837;56.3849;16.3145;262.1134;23.9466;0;-8.4E-7;0;Navigation
2.00557059;0.0130824;56.385;16.2809;262.1131;283.3261;0;-7.9E-7;0;Navigation
2.00557047;0.013082;56.385;16.2747;262.113;36.281;0;-7.8E-7;0;Navigation
2.00556981;0.0130814;56.3851;16.2432;262.1143;257.0178;0;-7.4E-7;0;Navigation
2.00556925;0.0130806;56.3852;16.2168;262.1183;22.4424;0;-7.1E-7;0;Navigation
2.00556925;0.0130806;56.3852;16.2168;262.1183;22.4424;0;-7.1E-7;0;Navigation
2.00556886;0.0130796;56.3852;16.2002;262.1161;329.3076;0;-6.9E-7;0;Navigation
2.00556793;0.0130781;56.3853;16.1587;262.1197;13.3689;0;-6.7E-7;0;Navigation
2.00556762;0.0130778;56.3854;16.1444;262.1213;277.3447;0;-6.6E-7;0;Navigation
2.0055675;0.0130783;56.3854;16.1373;262.1263;47.9265;0;-6.6E-7;0;Navigation
2.00556667;0.0130769;56.3855;16.1002;262.128;10.7263;0;-6.6E-7;0;Navigation
2.00556549;0.0130762;56.3857;16.042;262.1352;1.803;0;-6.9E-7;0;Navigation
2.00556507;0.0130755;56.3857;16.0208;262.1353;32.9981;0;-7.1E-7;0;Navigation
2.00556471;0.0130751;56.3858;16.0024;262.1366;11.3112;0;-7.2E-7;0;Navigation
2.00556404;0.0130733;56.3859;15.9684;262.1339;276.8178;0;-7.6E-7;0;Navigation
2.00556335;0.0130708;56.386;15.929;262.1302;282.4839;0;-8.0E-7;0;Navigation
2.00556296;0.0130699;56.3861;15.9042;262.1307;18.7327;0;-8.2E-7;0;Navigation
2.00556269;0.0130714;56.3862;15.8827;262.1378;54.9829;0;-8.4E-7;0;Navigation
2.00556244;0.0130713;56.3862;15.8647;262.1406;26.3241;0;-8.5E-7;0;Navigation
2.00556216;0.013071;56.3863;15.8432;262.1415;61.6109;0;-8.6E-7;0;Navigation
2.00556195;0.0130708;56.3864;15.8248;262.1438;39.2904;0;-8.7E-7;0;Navigation
2.00556173;0.0130696;56.3864;15.8061;262.1411;24.09;0;-8.7E-7;0;Navigation
2.0055614;0.0130679;56.3865;15.7739;262.1406;256.4481;0;-8.8E-7;0;Navigation
2.00556133;0.0130671;56.3865;15.7662;262.1386;37.7128;0;-8.9E-7;0;Navigation
2.0055612;0.0130664;56.3866;15.753;262.1375;281.9811;0;-8.9E-7;0;Navigation
2.0055612;0.0130664;56.3866;15.753;262.1375;281.9811;0;-8.9E-7;0;Navigation
2.00556067;0.0130627;56.3868;15.6915;262.1306;333.2425;0;-9.1E-7;0;Navigation
2.00556052;0.0130621;56.3869;15.6684;262.1301;38.4336;0;-9.2E-7;0;Navigation
2.00556052;0.0130621;56.3869;15.6684;262.1301;38.4336;0;-9.2E-7;0;Navigation
2.00556038;0.0130613;56.3869;15.6501;262.1289;16.152;0;-9.3E-7;0;Navigation
2.00556025;0.013061;56.387;15.6162;262.1327;281.6696;0;-9.6E-7;0;Navigation
2.00556004;0.013061;56.3871;15.5784;262.1371;257.8916;0;-9.8E-7;0;Navigation
2.00556;0.0130609;56.3872;15.5705;262.1385;42.8621;0;-9.9E-7;0;Navigation
2.00555978;0.0130602;56.3873;15.5382;262.1374;276.9834;0;-1.01E-6;0;Navigation
2.00555978;0.0130602;56.3873;15.5382;262.1374;276.9834;0;-1.01E-6;0;Navigation
2.00555949;0.0130591;56.3874;15.4988;262.1375;283.7095;0;-1.02E-6;0;Navigation
2.00555945;0.0130587;56.3874;15.4936;262.1359;19.1185;0;-1.02E-6;0;Navigation
2.00555931;0.0130583;56.3875;15.4722;262.1378;53.3136;0;-1.02E-6;0;Navigation
2.005559;0.0130571;56.3876;15.4354;262.1353;10.8441;0;-1.01E-6;0;Navigation
2.00555881;0.0130567;56.3876;15.4144;262.1358;37.9597;0;-1.0E-6;0;Navigation
2.00555848;0.0130552;56.3878;15.3832;262.1308;253.9149;0;-9.8E-7;0;Navigation
2.00555842;0.0130562;56.3878;15.3747;262.1394;50.3991;0;-9.7E-7;0;Navigation
2.00555842;0.0130562;56.3878;15.3747;262.1394;50.3991;0;-9.7E-7;0;Navigation
2.00555765;0.0130558;56.388;15.3165;262.1397;42.7535;0;-8.9E-7;0;Navigation
2.00555753;0.0130567;56.388;15.3034;262.1472;282.7592;0;-8.7E-7;0;Navigation
2.00555753;0.0130567;56.388;15.3034;262.1472;282.7592;0;-8.7E-7;0;Navigation
2.0055567;0.0130536;56.3882;15.2548;262.1322;99.7381;0;-7.9E-7;0;Navigation
2.00555643;0.0130557;56.3883;15.2368;262.1315;70.1455;0;-7.7E-7;0;Navigation
2.0055561;0.013055;56.3883;15.2184;262.1301;47.8436;0;-7.4E-7;0;Navigation
2.00555574;0.013055;56.3884;15.2001;262.1295;25.6112;0;-7.1E-7;0;Navigation
2.00555574;0.013055;56.3884;15.2001;262.1295;25.6112;0;-7.1E-7;0;Navigation
